COSMO-SKYMED 1          
1 31598U 07023A   26197.80933855  .00001468  00000+0  13204-3 0  9995
2 31598  97.8847  29.9159 0001563 102.5898 257.5499 14.97224237 34227
COSMOS 2428             
1 31792U 07029A   26197.66556615  .00000266  00000+0  16860-3 0  9992
2 31792  70.9382 292.5844 0007227  78.2595 281.9336 14.12935360982310
SL-16 R/B               
1 31793U 07029B   26197.45529411  .00000230  00000+0  14412-3 0  9996
2 31793  70.9744 261.7040 0001938 256.6178 192.2201 14.14852343983587
KORONAS-FOTON           
1 33504U 09003A   26197.78679080  .00008296  00000+0  16700-3 0  9998
2 33504  82.4312 141.3697 0012036  57.5848 302.6563 15.46324583965676
CZ-2C R/B               
1 37731U 11030B   26197.49961384  .00000449  00000+0  62940-4 0  9996
2 37731  97.8670 152.3610 0050764 291.7928 188.8289 14.81533720809160
H-2A R/B                
1 38341U 12025E   26197.52381840  .00000549  00000+0  54560-4 0  9996
2 38341  98.4847 175.0939 0042555 250.5922 109.0695 14.95839253767471
SHIJIAN-16 (SJ-16)      
1 39358U 13057A   26197.86482769  .00000898  00000+0  89792-4 0  9992
2 39358  74.9743 300.4717 0015722 160.7300 199.4486 14.92674976690775
SL-4 R/B                
1 39679U 14021B   26197.80586157  .00005283  00000+0  11300-3 0  9992
2 39679  51.6063  65.6073 0089587 214.4078 145.1086 15.42502840676181
ALOS-2                  
1 39766U 14029A   26197.82999677  .00000773  00000+0  11037-3 0  9990
2 39766  97.9234 294.5699 0001595  91.1105 269.0289 14.79469553655968
YAOGAN-29               
1 41038U 15069A   26197.86353115 -.00000025  00000+0  35190-5 0  9994
2 41038  98.0015 226.5417 0000629  13.1703 346.9526 14.83107231575024
ASTRO-H (HITOMI)        
1 41337U 16012A   26197.43876427  .00001205  00000+0  65372-4 0  9998
2 41337  30.9980 245.2550 0009617 187.9350 172.1137 15.10635248571716
HXMT (HUIYAN)           
1 42758U 17034A   26197.86417686  .00002274  00000+0  11784-3 0  9990
2 42758  43.0154  17.7635 0032105 331.1962  28.7113 15.18697557502171
SAOCOM 1A               
1 43641U 18076A   26197.84069336  .00000128  00000+0  22612-4 0  9991
2 43641  97.8881  24.1581 0001448  85.1502 274.9876 14.82148597420491
H-2A R/B                
1 43682U 18084L   26197.64749370  .00012229  00000+0  24908-3 0  9990
2 43682  98.8528  82.9967 0020461 295.2060  64.7063 15.46238091425672
SAOCOM 1B               
1 46265U 20059A   26197.80437486  .00000465  00000+0  64950-4 0  9996
2 46265  97.8883  23.2186 0001525  82.6115 277.5271 14.82159289317872
CSS (TIANHE)            
1 48274U 21035A   26197.88145381  .00001197  00000+0  19704-4 0  9991
2 48274  41.4694 141.6124 0002268 301.6300  58.4316 15.58131325297802
COSMOS 2550             
1 48865U 21056A   26197.88943941  .00002801  00000+0  90915-4 0  9994
2 48865  67.1437  10.0578 0008528 270.1256  89.8922 15.33838014283274
CZ-2C R/B               
1 52794U 22058K   26197.52431566  .00027151  00000+0  28063-3 0  9998
2 52794  50.1854  10.6251 0030231  28.2348 332.0257 15.63930727230238
CZ-2C R/B               
1 54039U 22132E   26197.53627737  .00045207  00000+0  30258-3 0  9994
2 54039  97.2889 205.9502 0009201 335.7404  24.3427 15.75115426210560
GSLV R/B                
1 54149U 22138AN  26197.32289931  .00001350  00000+0  11303-3 0  9990
2 54149  87.3817 123.2008 0023421  48.5168 311.8070 14.97385341203177
XRISM                   
1 57800U 23137A   26197.35809358  .00002060  00000+0  10935-3 0  9990
2 57800  31.0009 170.6085 0007881 257.7036 102.2721 15.12673704157280
ACS3                    
1 59588U 24077B   26197.68851153  .00006825  00000+0  47324-2 0  9999
2 59588  97.1747 109.9406 0127231  34.9580 325.9859 13.95286443112152
SPACEMOBILE-003         
1 61045U 24163A   26197.33061939  .00001005  00000+0  59791-4 0  9991
2 61045  52.9669 175.4223 0004666 197.1452 162.9385 15.20707825102206
SPACEMOBILE-005         
1 61046U 24163B   26197.77410363  .00002313  00000+0  11848-3 0  9992
2 61046  52.9761 173.3331 0008608 200.3156 159.7497 15.20721879102264
SPACEMOBILE-001         
1 61047U 24163C   26197.37810403  .00000103  00000+0  19358-4 0  9998
2 61047  52.9728 174.8637 0007107 197.0870 162.9886 15.20742349102208
SPACEMOBILE-002         
1 61048U 24163D   26197.29622620 -.00001100  00000+0 -34612-4 0  9992
2 61048  52.9781 175.2802 0005866 196.1533 163.9275 15.20776804102197
SPACEMOBILE-004         
1 61049U 24163E   26196.62160951  .00012160  00000+0  55841-3 0  9995
2 61049  52.9675 178.1586 0006579 225.4338 134.6120 15.20780797102091
CZ-8A R/B               
1 66004U 25231K   26197.60900077 -.00000035  00000+0  46054-4 0  9994
2 66004  50.0040 274.1439 0116572 327.5851  31.7941 14.30162420 39156
SZ-21 MODULE            
1 66515U 25246C   26197.84023389  .00035929  00000+0  19754-3 0  9990
2 66515  41.4721 122.2846 0008742 231.6714 128.3345 15.78930082 38420
SPACEMOBILE-006         
1 67232U 25309A   26197.39546060  .00000913  00000+0  58828-4 0  9994
2 67232  52.9935 197.8358 0009991 219.1469 140.8802 15.18656625 31031
