OBJECT_NAME,OBJECT_ID,EPOCH,MEAN_MOTION,ECCENTRICITY,INCLINATION,RA_OF_ASC_NODE,ARG_OF_PERICENTER,MEAN_ANOMALY,EPHEMERIS_TYPE,CLASSIFICATION_TYPE,NORAD_CAT_ID,ELEMENT_SET_NO,REV_AT_EPOCH,BSTAR,MEAN_MOTION_DOT,MEAN_MOTION_DDOT
COSMO-SKYMED 1,2007-023A,2026-07-16T19:25:26.850720,14.97224237,.0001563,97.8847,29.9159,102.5898,257.5499,0,U,31598,999,3422,.13204E-3,.1468E-4,0
COSMOS 2428,2007-029A,2026-07-16T15:58:24.915360,14.12935360,.0007227,70.9382,292.5844,78.2595,281.9336,0,U,31792,999,98231,.1686E-3,.266E-5,0
SL-16 R/B,2007-029B,2026-07-16T10:55:37.411104,14.14852343,.0001938,70.9744,261.7040,256.6178,192.2201,0,U,31793,999,98358,.14412E-3,.23E-5,0
KORONAS-FOTON,2009-003A,2026-07-16T18:52:58.725120,15.46324583,.0012036,82.4312,141.3697,57.5848,302.6563,0,U,33504,999,96567,.167E-3,.8296E-4,0
CZ-2C R/B,2011-030B,2026-07-16T11:59:26.635776,14.81533720,.0050764,97.8670,152.3610,291.7928,188.8289,0,U,37731,999,80916,.6294E-4,.449E-5,0
H-2A R/B,2012-025E,2026-07-16T12:34:17.909760,14.95839253,.0042555,98.4847,175.0939,250.5922,109.0695,0,U,38341,999,76747,.5456E-4,.549E-5,0
SHIJIAN-16 (SJ-16),2013-057A,2026-07-16T20:45:21.112416,14.92674976,.0015722,74.9743,300.4717,160.7300,199.4486,0,U,39358,999,69077,.89792E-4,.898E-5,0
SL-4 R/B,2014-021B,2026-07-16T19:20:26.439648,15.42502840,.0089587,51.6063,65.6073,214.4078,145.1086,0,U,39679,999,67618,.113E-3,.5283E-4,0
ALOS-2,2014-029A,2026-07-16T19:55:11.720928,14.79469553,.0001595,97.9234,294.5699,91.1105,269.0289,0,U,39766,999,65596,.11037E-3,.773E-5,0
YAOGAN-29,2015-069A,2026-07-16T20:43:29.091360,14.83107231,.0000629,98.0015,226.5417,13.1703,346.9526,0,U,41038,999,57502,.3519E-5,-.25E-6,0
ASTRO-H (HITOMI),2016-012A,2026-07-16T10:31:49.232928,15.10635248,.0009617,30.9980,245.2550,187.9350,172.1137,0,U,41337,999,57171,.65372E-4,.1205E-4,0
HXMT (HUIYAN),2017-034A,2026-07-16T20:44:24.880704,15.18697557,.0032105,43.0154,17.7635,331.1962,28.7113,0,U,42758,999,50217,.11784E-3,.2274E-4,0
SAOCOM 1A,2018-076A,2026-07-16T20:10:35.906304,14.82148597,.0001448,97.8881,24.1581,85.1502,274.9876,0,U,43641,999,42049,.22612E-4,.128E-5,0
H-2A R/B,2018-084L,2026-07-16T15:32:23.455680,15.46238091,.0020461,98.8528,82.9967,295.2060,64.7063,0,U,43682,999,42567,.24908E-3,.12229E-3,0
SAOCOM 1B,2020-059A,2026-07-16T19:18:17.987904,14.82159289,.0001525,97.8883,23.2186,82.6115,277.5271,0,U,46265,999,31787,.6495E-4,.465E-5,0
CSS (TIANHE),2021-035A,2026-07-16T21:09:17.609184,15.58131325,.0002268,41.4694,141.6124,301.6300,58.4316,0,U,48274,999,29780,.19704E-4,.1197E-4,0
COSMOS 2550,2021-056A,2026-07-16T21:20:47.565024,15.33838014,.0008528,67.1437,10.0578,270.1256,89.8922,0,U,48865,999,28327,.90915E-4,.2801E-4,0
CZ-2C R/B,2022-058K,2026-07-16T12:35:00.873024,15.63930727,.0030231,50.1854,10.6251,28.2348,332.0257,0,U,52794,999,23023,.28063E-3,.27151E-3,0
CZ-2C R/B,2022-132E,2026-07-16T12:52:14.364768,15.75115426,.0009201,97.2889,205.9502,335.7404,24.3427,0,U,54039,999,21056,.30258E-3,.45207E-3,0
GSLV R/B,2022-138AN,2026-07-16T07:44:58.500384,14.97385341,.0023421,87.3817,123.2008,48.5168,311.8070,0,U,54149,999,20317,.11303E-3,.135E-4,0
XRISM,2023-137A,2026-07-16T08:35:39.285312,15.12673704,.0007881,31.0009,170.6085,257.7036,102.2721,0,U,57800,999,15728,.10935E-3,.206E-4,0
ACS3,2024-077B,2026-07-16T16:31:27.396192,13.95286443,.0127231,97.1747,109.9406,34.9580,325.9859,0,U,59588,999,11215,.47324E-2,.6825E-4,0
SPACEMOBILE-003,2024-163A,2026-07-16T07:56:05.515296,15.20707825,.0004666,52.9669,175.4223,197.1452,162.9385,0,U,61045,999,10220,.59791E-4,.1005E-4,0
SPACEMOBILE-005,2024-163B,2026-07-16T18:34:42.553632,15.20721879,.0008608,52.9761,173.3331,200.3156,159.7497,0,U,61046,999,10226,.11848E-3,.2313E-4,0
SPACEMOBILE-001,2024-163C,2026-07-16T09:04:28.188192,15.20742349,.0007107,52.9728,174.8637,197.0870,162.9886,0,U,61047,999,10220,.19358E-4,.103E-5,0
SPACEMOBILE-002,2024-163D,2026-07-16T07:06:33.943680,15.20776804,.0005866,52.9781,175.2802,196.1533,163.9275,0,U,61048,999,10219,-.34612E-4,-.11E-4,0
SPACEMOBILE-004,2024-163E,2026-07-15T14:55:07.061664,15.20780797,.00065792,52.9675,178.1586,225.4338,134.6120,0,U,61049,999,10209,.55840965E-3,.1216E-3,0
CZ-8A R/B,2025-231K,2026-07-16T14:36:57.666528,14.30162420,.01165729,50.0040,274.1439,327.5851,31.7941,0,U,66004,999,3915,.46054128E-4,-.35E-6,0
SZ-21 MODULE,2025-246C,2026-07-16T20:09:56.208096,15.78930082,.0008742,41.4721,122.2846,231.6714,128.3345,0,U,66515,999,3842,.19754E-3,.35929E-3,0
SPACEMOBILE-006,2025-309A,2026-07-16T09:29:27.795840,15.18656625,.0009991,52.9935,197.8358,219.1469,140.8802,0,U,67232,999,3103,.58828E-4,.913E-5,0
